{
  "type": "FeatureCollection",
  "features": [
    {
      "type": "Feature",
      "properties": {
        "norad_id": 38709,
        "name": "EXACTVIEW-1 (ADS-1B)",
        "group": "resource",
        "lat": 80.90159325292838,
        "lon": -15.276286967020827,
        "alt_km": 798.2823276032696,
        "timestamp": "2025-12-02T07:10:08.766168+00:00",
        "meta_object_name": "EXACTVIEW-1 (ADS-1B)",
        "meta_object_id": "2012-039C",
        "meta_epoch": "2025-12-01T18:56:42.203040",
        "meta_mean_motion": 14.24900354,
        "meta_eccentricity": 0.001122,
        "meta_inclination": 98.9636,
        "meta_ra_of_asc_node": 83.95,
        "meta_arg_of_pericenter": 25.4469,
        "meta_mean_anomaly": 334.726,
        "meta_ephemeris_type": 0,
        "meta_classification_type": "U",
        "meta_norad_cat_id": 38709,
        "meta_element_set_no": 999,
        "meta_rev_at_epoch": 69459,
        "meta_bstar": 8.7721e-05,
        "meta_mean_motion_dot": 1.59e-06,
        "meta_mean_motion_ddot": 0,
        "tle_line1": "1 38709U 12039C   25335.78937735  .00000159  00000+0  87721-4 0  9992",
        "tle_line2": "2 38709  98.9636  83.9500 0011220  25.4469 334.7260 14.24900354694591"
      },
      "geometry": {
        "type": "Point",
        "coordinates": [
          -15.276286967020827,
          80.90159325292838
        ]
      }
    },
    {
      "type": "Feature",
      "properties": {
        "norad_id": 38755,
        "name": "SPOT 6",
        "group": "resource",
        "lat": -63.06946635786013,
        "lon": 57.67820983253579,
        "alt_km": 705.6254574381601,
        "timestamp": "2025-12-02T07:10:08.766179+00:00",
        "meta_object_name": "SPOT 6",
        "meta_object_id": "2012-047A",
        "meta_epoch": "2025-12-01T19:56:18.295584",
        "meta_mean_motion": 14.5858579,
        "meta_eccentricity": 0.0001031,
        "meta_inclination": 98.1586,
        "meta_ra_of_asc_node": 40.8153,
        "meta_arg_of_pericenter": 99.5916,
        "meta_mean_anomaly": 260.54,
        "meta_ephemeris_type": 0,
        "meta_classification_type": "U",
        "meta_norad_cat_id": 38755,
        "meta_element_set_no": 999,
        "meta_rev_at_epoch": 70428,
        "meta_bstar": 0.00010595,
        "meta_mean_motion_dot": 4.48e-06,
        "meta_mean_motion_ddot": 0,
        "tle_line1": "1 38755U 12047A   25335.83076731  .00000448  00000+0  10595-3 0  9993",
        "tle_line2": "2 38755  98.1586  40.8153 0001031  99.5916 260.5400 14.58585790704282"
      },
      "geometry": {
        "type": "Point",
        "coordinates": [
          57.67820983253579,
          -63.06946635786013
        ]
      }
    },
    {
      "type": "Feature",
      "properties": {
        "norad_id": 39019,
        "name": "PLEIADES 1B",
        "group": "resource",
        "lat": -16.21089990009481,
        "lon": -133.28226684864853,
        "alt_km": 703.0374910501814,
        "timestamp": "2025-12-02T07:10:08.766190+00:00",
        "meta_object_name": "PLEIADES 1B",
        "meta_object_id": "2012-068A",
        "meta_epoch": "2025-12-01T20:23:36.201984",
        "meta_mean_motion": 14.58534998,
        "meta_eccentricity": 0.0001267,
        "meta_inclination": 98.1807,
        "meta_ra_of_asc_node": 48.6728,
        "meta_arg_of_pericenter": 88.1005,
        "meta_mean_anomaly": 272.0339,
        "meta_ephemeris_type": 0,
        "meta_classification_type": "U",
        "meta_norad_cat_id": 39019,
        "meta_element_set_no": 999,
        "meta_rev_at_epoch": 69208,
        "meta_bstar": 0.00010673,
        "meta_mean_motion_dot": 4.5e-06,
        "meta_mean_motion_ddot": 0,
        "tle_line1": "1 39019U 12068A   25335.84972456  .00000450  00000+0  10673-3 0  9990",
        "tle_line2": "2 39019  98.1807  48.6728 0001267  88.1005 272.0339 14.58534998692087"
      },
      "geometry": {
        "type": "Point",
        "coordinates": [
          -133.28226684864853,
          -16.21089990009481
        ]
      }
    },
    {
      "type": "Feature",
      "properties": {
        "norad_id": 39030,
        "name": "GOKTURK 2",
        "group": "resource",
        "lat": 35.646079216441386,
        "lon": 4.025706498850512,
        "alt_km": 641.573965683051,
        "timestamp": "2025-12-02T07:10:08.766200+00:00",
        "meta_object_name": "GOKTURK 2",
        "meta_object_id": "2012-073A",
        "meta_epoch": "2025-12-01T20:45:07.908768",
        "meta_mean_motion": 14.75265691,
        "meta_eccentricity": 7.92e-05,
        "meta_inclination": 97.69,
        "meta_ra_of_asc_node": 178.0525,
        "meta_arg_of_pericenter": 91.6961,
        "meta_mean_anomaly": 268.4339,
        "meta_ephemeris_type": 0,
        "meta_classification_type": "U",
        "meta_norad_cat_id": 39030,
        "meta_element_set_no": 999,
        "meta_rev_at_epoch": 69541,
        "meta_bstar": 0.00011313,
        "meta_mean_motion_dot": 7.18e-06,
        "meta_mean_motion_ddot": 0,
        "tle_line1": "1 39030U 12073A   25335.86467487  .00000718  00000+0  11313-3 0  9993",
        "tle_line2": "2 39030  97.6900 178.0525 0000792  91.6961 268.4339 14.75265691695412"
      },
      "geometry": {
        "type": "Point",
        "coordinates": [
          4.025706498850512,
          35.646079216441386
        ]
      }
    },
    {
      "type": "Feature",
      "properties": {
        "norad_id": 39084,
        "name": "LANDSAT 8",
        "group": "resource",
        "lat": 59.055355999013884,
        "lon": 30.593842404641915,
        "alt_km": 696.0738103667845,
        "timestamp": "2025-12-02T07:10:08.766210+00:00",
        "meta_object_name": "LANDSAT 8",
        "meta_object_id": "2013-008A",
        "meta_epoch": "2025-12-01T19:21:29.092608",
        "meta_mean_motion": 14.57122196,
        "meta_eccentricity": 0.0001085,
        "meta_inclination": 98.2086,
        "meta_ra_of_asc_node": 44.0407,
        "meta_arg_of_pericenter": 88.341,
        "meta_mean_anomaly": 271.7913,
        "meta_ephemeris_type": 0,
        "meta_classification_type": "U",
        "meta_norad_cat_id": 39084,
        "meta_element_set_no": 999,
        "meta_rev_at_epoch": 66915,
        "meta_bstar": 0.00011205,
        "meta_mean_motion_dot": 4.6e-06,
        "meta_mean_motion_ddot": 0,
        "tle_line1": "1 39084U 13008A   25335.80658672  .00000460  00000+0  11205-3 0  9997",
        "tle_line2": "2 39084  98.2086  44.0407 0001085  88.3410 271.7913 14.57122196669151"
      },
      "geometry": {
        "type": "Point",
        "coordinates": [
          30.593842404641915,
          59.055355999013884
        ]
      }
    },
    {
      "type": "Feature",
      "properties": {
        "norad_id": 39086,
        "name": "SARAL",
        "group": "resource",
        "lat": -58.751813417325785,
        "lon": -33.991667147510675,
        "alt_km": 790.3185946449294,
        "timestamp": "2025-12-02T07:10:08.766221+00:00",
        "meta_object_name": "SARAL",
        "meta_object_id": "2013-009A",
        "meta_epoch": "2025-12-01T18:19:16.254048",
        "meta_mean_motion": 14.32750601,
        "meta_eccentricity": 0.0002571,
        "meta_inclination": 98.5507,
        "meta_ra_of_asc_node": 159.8368,
        "meta_arg_of_pericenter": 129.7807,
        "meta_mean_anomaly": 230.3603,
        "meta_ephemeris_type": 0,
        "meta_classification_type": "U",
        "meta_norad_cat_id": 39086,
        "meta_element_set_no": 999,
        "meta_rev_at_epoch": 66733,
        "meta_bstar": 7.6624e-05,
        "meta_mean_motion_dot": 1.65e-06,
        "meta_mean_motion_ddot": 0,
        "tle_line1": "1 39086U 13009A   25335.76338257  .00000165  00000+0  76624-4 0  9998",
        "tle_line2": "2 39086  98.5507 159.8368 0002571 129.7807 230.3603 14.32750601667332"
      },
      "geometry": {
        "type": "Point",
        "coordinates": [
          -33.991667147510675,
          -58.751813417325785
        ]
      }
    },
    {
      "type": "Feature",
      "properties": {
        "norad_id": 39150,
        "name": "GAOFEN-1",
        "group": "resource",
        "lat": 4.673631217011594,
        "lon": -132.20474660573086,
        "alt_km": 630.4619027337831,
        "timestamp": "2025-12-02T07:10:08.766232+00:00",
        "meta_object_name": "GAOFEN-1",
        "meta_object_id": "2013-018A",
        "meta_epoch": "2025-12-01T20:37:10.622208",
        "meta_mean_motion": 14.76501386,
        "meta_eccentricity": 0.0017537,
        "meta_inclination": 97.9339,
        "meta_ra_of_asc_node": 46.7102,
        "meta_arg_of_pericenter": 177.2523,
        "meta_mean_anomaly": 182.8786,
        "meta_ephemeris_type": 0,
        "meta_classification_type": "U",
        "meta_norad_cat_id": 39150,
        "meta_element_set_no": 999,
        "meta_rev_at_epoch": 67912,
        "meta_bstar": 0.00013742,
        "meta_mean_motion_dot": 9.08e-06,
        "meta_mean_motion_ddot": 0,
        "tle_line1": "1 39150U 13018A   25335.85915072  .00000908  00000+0  13742-3 0  9992",
        "tle_line2": "2 39150  97.9339  46.7102 0017537 177.2523 182.8786 14.76501386679126"
      },
      "geometry": {
        "type": "Point",
        "coordinates": [
          -132.20474660573086,
          4.673631217011594
        ]
      }
    }
  ]
}